 2024  8 1 2135  2.0 LV                      MVO                               1
 ACTION:REG 24-08-02 11:49 OP:rcs  STATUS:               ID:20240801213502     I
 2024-08-01-2135-02S.MV____045                                                 6
 VOLC MAIN r                                                                   3
 STAT SP IPHASW D HRMM SECON CODA AMPLIT PERI AZIMU VELO AIN AR TRES W  DIS CAZ7
 MSS1 SZ IP       213524.230                                                    
                                                                                
 2024  8 3  320 45.4 LV                      MVO                               1
 ACTION:REG 24-08-07 14:16 OP:rcs  STATUS:               ID:20240803032045     I
 2024-08-03-0320-45S.MV____047                                                 6
 VOLC MAIN r                                                                   3
 STAT SP IPHASW D HRMM SECON CODA AMPLIT PERI AZIMU VELO AIN AR TRES W  DIS CAZ7
 MBLY HZ IP        32125.942                                                    
                                                                                
 2024  8 3  333 45.0 LV                      MVO                               1
 ACTION:REG 24-08-06 13:01 OP:rcs  STATUS:               ID:20240803033345     I
 2024-08-03-0333-45S.MV____045                                                 6
 VOLC MAIN h                                                                   3
 STAT SP IPHASW D HRMM SECON CODA AMPLIT PERI AZIMU VELO AIN AR TRES W  DIS CAZ7
 MBLG HZ EP        33411.007                                                    
 MBWH BZ EP        33411.106                                                    
 MBRY BZ EP        33411.999                                                    
 MBGH HZ EP        33411.449                                                    
 MBBY HZ EP        33411.293                                                    
 MBFL HZ EP        33411.785                                                    
 MBLY HZ IP        33410.712                                                    
 MSS1 SZ EP        334 9.601                                                    
                                                                                
 2024  8 3 2053 33.4 LV 16.715 -62.177  2.9  MVO  8 0.3 2.3LMVO                1
 GAP=121   MVO  0.70       0.7     0.6  1.7  0.8508E-01  0.2083E+00  0.1041E+00E
 2024  8 3 2053 33.446  16.71458  -62.17747    2.863  0.251 MVO                H
 ACTION:UP  24-08-07 13:31 OP:rcs  STATUS:               ID:20240803205306     I
 OLDACT:UP  24-08-06 17:27 OP:rcs  STATUS:               ID:20240803205306     3
 OLDACT:REG 24-08-06 13:02 OP:rcs  STATUS:               ID:20240803205306     3
 2024-08-03-2053-06S.MV____045                                                 6
 VOLC MAIN t                                                                   3
 STAT SP IPHASW D HRMM SECON CODA AMPLIT PERI AZIMU VELO AIN AR TRES W  DIS CAZ7
 MSS1 SZ IP     C 205334.641                             159    0.3010 0.80 358 
 MBLY HZ IP       205334.750                             141    0.2810 1.62 297 
 MBLY H1 IS       205335.279                             141    0.0410 1.62 297 
 MBLY H1  IAML    205335.401      4301.0 0.13                          1.62 297 
 MBLG HZ IP     C 205334.802                             134    0.2510 1.99  55 
 MBLG H1 IS       205335.347                             134   -0.0310 1.99  55 
 MBLG H1  IAML    205336.145      2105.5 0.20                          1.99  55 
 MBRY BZ IP       205334.864                             125    0.0310 2.85 115 
 MBRY BE IS       205335.505                             125   -0.3710 2.85 115 
 MBBY HZ IP       205334.997                             119    0.0610 3.26 235 
 MBBY H2 ES       205335.755                             119   -0.2910 3.26 235 
 MBWH BZ EP       205335.120                             121    0.1010 3.37 335 
 MBWH BE ES       205336.041                             121   -0.1610 3.37 335 
 MBWH BE  IAML    205338.161       801.4 0.19                          3.37 335 
 MBGH HZ EP       205335.211                             120    0.1810 3.44 285 
 MBGH H2 ES       205336.516                             120    0.3010 3.44 285 
 MBFL HZ EP     D 205335.566                             109   -0.1310 5.29 315 
 MBFL H2 ES       205336.817                             109   -0.5610 5.29 315 
                                                                                
 2024  8 4 1438 58.2 LV 16.714 -62.180  2.8  MVO  8 0.2 1.9LMVO                1
 GAP=120   MVO  0.63       0.7     0.6  1.5  0.6480E-01  0.1437E+00  0.7526E-01E
 2024  8 4 1438 58.199  16.71448  -62.18002    2.841  0.224 MVO                H
 ACTION:UP  24-08-06 17:28 OP:rcs  STATUS:               ID:20240804143830     I
 OLDACT:REG 24-08-06 13:02 OP:rcs  STATUS:               ID:20240804143830     3
 2024-08-04-1438-30S.MV____045                                                 6
 VOLC MAIN t                                                                   3
 STAT SP IPHASW D HRMM SECON CODA AMPLIT PERI AZIMU VELO AIN AR TRES W  DIS CAZ7
 MSS1 SZ IP     C 143859.393                             158    0.3010 0.85  17 
 MBLY HZ IP       143859.452                             144    0.2910 1.40 303 
 MBLY H2 IS       1439 0.019                             144    0.1410 1.40 303 
 MBLY H1  IAML    1439 0.155      2340.1 0.11                          1.40 303 
 MBLG HZ IP     C 143859.540                             130    0.1710 2.22  58 
 MBLG H1 ES       1439 0.206                             130   -0.0410 2.22  58 
 MBBY HZ EP       143859.706                             120    0.1010 3.04 232 
 MBBY H2 ES       1439 0.405                             120   -0.2510 3.04 232 
 MBRY BZ IP       143859.659                             122   -0.0010 3.09 112 
 MBRY BE IS       1439 0.410                             122   -0.3510 3.09 112 
 MBWH BZ IP       143859.828                             121    0.0910 3.28 339 
 MBWH BE IS     C 1439 0.694                             121   -0.2010 3.28 339 
 MBFL H2 ES       1439 1.568                             110   -0.4410 5.12 317 
 MBGH HZ IP       143859.903                             122    0.2110 3.18 286 
 MBFL HZ EP       1439 0.284                             110           5.12 317 
                                                                                
 2024  8 4 1443  6.4 LV 16.722 -62.174  3.8  MVO  7 0.2 2.0LMVO                1
 GAP=114   MVO  0.61       0.8     0.7  0.4  0.2210E+00  0.1002E+00  0.5852E-01E
 2024  8 4 1443  6.436  16.72195  -62.17408    3.785  0.218 MVO                H
 ACTION:UP  24-08-06 17:29 OP:rcs  STATUS:               ID:20240804144239     I
 OLDACT:REG 24-08-06 13:03 OP:rcs  STATUS:               ID:20240804144239     3
 2024-08-04-1442-39S.MV____045                                                 6
 VOLC MAIN t                                                                   3
 STAT SP IPHASW D HRMM SECON CODA AMPLIT PERI AZIMU VELO AIN AR TRES W  DIS CAZ7
 MBLG HZ EP       1443 7.922                             155    0.2410 1.31  75 
 MBLG H2 IS       1443 8.662                             155    0.0410 1.31  75 
 MBLY HZ EP       1443 7.878                             148    0.0810 1.81 268 
 MBLY H1 IS       1443 8.451                             148   -0.3810 1.81 268 
 MBLY H1  IAML    144310.049      1579.8 0.16                          1.81 268 
 MBWH BZ EP       1443 8.245                              46    0.2110 2.87 321 
 MBWH BE ES       1443 9.211                              46   -0.0210 2.87 321 
 MBRY BZ EP       1443 8.064                              46    0.0110 2.99 132 
 MBRY BN ES       1443 8.936                              46   -0.3310 2.99 132 
 MBRY BE  IAML    1443 9.578      1166.0 0.16                          2.99 132 
 MBGH HZ EP       1443 8.383                              46    0.1310 3.69 271 
 MBGH H1 ES       1443 9.589                              46   -0.0210 3.69 271 
 MBBY H1 ES       144310.034                              46    0.3310 4.05 229 
 MBBY H1  IAML    144315.154       281.8 0.25                          4.05 229 
 MBFL HZ EP       1443 8.792                              46    0.1810 5.04 306 
 MBFL H2 ES       1443 9.874                              46   -0.3710 5.04 306 
 MBBY HZ EP       1443 8.141                              46           4.05 229 
                                                                                
 2024  8 4 1643 33.6 LV 16.719 -62.177  3.8  MVO  8 0.2 1.9LMVO                1
 GAP=105   MVO  0.48       0.6     0.5  0.3  0.1028E+00  0.5947E-01  0.3541E-01E
 2024  8 4 1643 33.592  16.71931  -62.17698    3.783  0.166 MVO                H
 ACTION:UP  24-08-06 17:31 OP:rcs  STATUS:               ID:20240804164307     I
 OLDACT:REG 24-08-06 13:03 OP:rcs  STATUS:               ID:20240804164307     3
 2024-08-04-1643-07S.MV____045                                                 6
 VOLC MAIN t                                                                   3
 STAT SP IPHASW D HRMM SECON CODA AMPLIT PERI AZIMU VELO AIN AR TRES W  DIS CAZ7
 MSS1 SZ IP     C 164334.934                             175    0.1310 0.29 343 
 MBLY HZ IP       164335.025                             152    0.1310 1.51 279 
 MBLY H1 IS     C 164335.575                             152   -0.3010 1.51 279 
 MBLY H1  IAML    164337.214      1226.2 0.16                          1.51 279 
 MBLG HZ IP       164335.082                             149    0.1710 1.69  68 
 MBLG H1 ES       164335.928                             149    0.0310 1.69  68 
 MBWH BZ EP       164335.412                              46    0.2010 2.94 330 
 MBWH BE IS     C 164336.242                              46   -0.1810 2.94 330 
 MBRY BZ IP       164335.179                              46   -0.0510 3.06 124 
 MBRY BN IS       164336.220                              46   -0.2410 3.06 124 
 MBGH HZ EP       164335.487                              46    0.1610 3.40 276 
 MBGH H1 IS     C 164336.768                              46    0.1410 3.40 276 
 MBGH H1  IAML    164338.619       289.5 0.15                          3.40 276 
 MBBY HZ EP       164335.296                              46   -0.0410 3.63 229 
 MBBY H1 ES       164336.686                              46    0.0410 3.63 229 
 MBFL HZ EP       164335.830                              46    0.0810 4.98 310 
 MBFL H2 ES       164337.106                              46   -0.2610 4.98 310 
                                                                                
 2024  8 6 0351 57.8 LV 16.717 -62.176  3.7  MVO  8 0.2 1.3LMVO                1
 GAP=113   MVO  0.53       0.6     0.5  1.0  0.6719E-01  0.1068E+00  0.6514E-01E
 2024  8 6 0351 57.794  16.71667  -62.17576    3.700  0.183 MVO                H
 ACTION:UP  24-08-06 17:32 OP:rcs  STATUS:               ID:20240806035134     I
 OLDACT:REG 24-08-06 13:05 OP:rcs  STATUS:               ID:20240806035134     3
 2024-08-06-0351-34S.MV____045                                                 6
 VOLC MAIN t                                                                   3
 STAT SP IPHASW D HRMM SECON CODA AMPLIT PERI AZIMU VELO AIN AR TRES W  DIS CAZ7
 MSS1 SZ IP        35159.132                             168    0.1410 0.61 340 
 MSS1 SZ IS        35159.756                             168   -0.1410 0.61 340 
 MBLY HZ IP        35159.250                             149    0.1410 1.71 288 
 MBLY H1 IS        35159.787                             149   -0.3110 1.71 288 
 MBLY H2  IAML     352 2.927       353.3 0.18                          1.71 288 
 MBLG HZ IP        35159.290                             148    0.2010 1.71  57 
 MBLG H2 IS        35159.826                             148   -0.2310 1.71  57 
 MBRY BZ EP        35159.398                             135    0.0210 2.79 120 
 MBRY BN ES        352 0.471                             135   -0.1010 2.79 120 
 MBWH BZ IP        35159.629                              46    0.1010 3.25 330 
 MBWH BE ES        352 1.147                              46    0.3210 3.25 330 
 MBBY HZ IP        35159.540                              46   -0.0010 3.55 234 
 MBBY H2 ES        352 0.985                              46    0.1310 3.55 234 
 MBGH HZ EP        35159.746                              46    0.1510 3.57 281 
 MBGH H2 ES        352 0.826                              46   -0.1310 3.57 281 
 MBFL HZ EP        352 0.079                              46    0.0210 5.27 312 
 MBFL H2 ES        352 1.427                              46   -0.3210 5.27 312 
 MBFL H2  IAML     352 3.038        60.5 0.47                          5.27 312 
                                                                                
 2024  8 8 0142 12.3 LV 16.716 -62.181  4.3  MVO  9 0.2 1.2LMVO                1
 GAP= 59   MVO  0.58       0.7     0.7  0.7  0.6286E-01  0.8769E-01 -0.6983E-01E
 2024  8 8 0142 12.300  16.71605  -62.18087    4.279  0.206 MVO                H
 ACTION:UP  24-08-08 13:49 OP:nn   STATUS:               ID:20240808014146     I
 OLDACT:REG 24-08-08 12:52 OP:nn   STATUS:               ID:20240808014146     3
 2024-08-08-0141-46S.MV____045                                                 6
 VOLC MAIN t                                                                   3
 STAT SP IPHASW D HRMM SECON CODA AMPLIT PERI AZIMU VELO AIN AR TRES W  DIS CAZ7
 MSS1 SZ EP        14213.957                             165    0.2910 0.72  28 
 MSS1 SZ IS        14214.827                             165    0.1310 0.72  28 
 MBLY HZ EP        14213.940                             154    0.2710 1.23 298 
 MBLY H2 IS        14214.700                             154   -0.0010 1.23 298 
 MBLY H2  IAML     14215.970       225.8 0.16                          1.23 298 
 MBLG HZ EP        14213.953                             134    0.1410 2.22  64 
 MBLG H2 IS        14214.603                             134   -0.3510 2.22  64 
 MBFR HZ EP        14214.125                             131    0.1510 2.57 173 
 MBFR H2 IS     C  14214.889                             131   -0.3410 2.57 173 
 MBGH HZ EP        14214.245                             122    0.2210 3.05 284 
 MBGH H2 ES        14215.261                             122   -0.0510 3.05 284 
 MBBY HZ EP        14214.119                             120    0.1510 3.08 229 
 MBBY H2 ES        14214.966                             120   -0.2510 3.08 229 
 MBWH BZ EP        14214.113                             122    0.0610 3.08 340 
 MBWH BN ES        14215.011                             122   -0.3510 3.08 340 
 MBWH BN  IAML     14216.390       103.3 0.22                          3.08 340 
 MBRY BZ EP        14214.068                             120   -0.0010 3.25 114 
 MBRY BE ES        14215.435                             120    0.0310 3.25 114 
 MBFL HZ EP        14214.519                              36    0.0910 4.93 317 
 MBFL H2 ES        14215.841                              36   -0.1910 4.93 317 
 MBFL H2  IAML     14216.440        57.5 0.13                          4.93 317 
                                                                                
 2024  8 8 0428 40.5 LV 16.717 -62.186  3.9  MVO  9 0.2 1.1LMVO                1
 GAP= 72   MVO  0.58       0.6     0.7  1.1  0.1294E+00  0.1715E-02  0.2974E-01E
 2024  8 8 0428 40.519  16.71749  -62.18561    3.916  0.204 MVO                H
 ACTION:UP  24-08-08 13:50 OP:nn   STATUS:               ID:20240808042814     I
 OLDACT:REG 24-08-08 12:52 OP:nn   STATUS:               ID:20240808042814     3
 2024-08-08-0428-14S.MV____045                                                 6
 VOLC MAIN t                                                                   3
 STAT SP IPHASW D HRMM SECON CODA AMPLIT PERI AZIMU VELO AIN AR TRES W  DIS CAZ7
 MBLY HZ EP        42842.004                             162    0.2710 0.72 306 
 MBLY H1 ES        42842.596                             162   -0.0610 0.72 306 
 MBLY H1  IAML     42843.984       109.7 0.16                          0.72 306 
 MSS1 SZ EP        42842.014                             157    0.2010 0.97  60 
 MSS1 SZ ES        42842.763                             157   -0.0210 0.97  60 
 MBGH HZ EP        42842.324                             121    0.2710 2.52 283 
 MBGH H1 ES     D  42843.364                             121    0.1510 2.52 283 
 MBLG HZ EP        42842.038                             118   -0.0310 2.63  72 
 MBWH BZ IP        42842.179                             117    0.0410 2.79 348 
 MBWH BN IS        42843.060                             117   -0.3010 2.79 348 
 MBFR HZ EP        42842.147                             118   -0.0510 2.83 163 
 MBFR H2 IS        42842.993                             118   -0.4610 2.83 163 
 MBFR H2  IAML     42843.367       146.3 0.09                          2.83 163 
 MBBY HZ EP        42842.241                             112    0.1610 2.84 219 
 MBBY H1 ES        42843.162                             112   -0.0910 2.84 219 
 MBRY BZ EP        42842.256                             102   -0.1410 3.77 113 
 MBRY BE ES        42844.081                             102    0.2810 3.77 113 
 MBFL HZ EP        42842.579                              97    0.0210 4.47 320 
 MBFL H2 IS        42843.843                              97   -0.2510 4.47 320 
 MBFL H2  IAML     42844.343        33.8 0.09                          4.47 320 
                                                                                
