 2024  820 2134 27.0 LV                      MVO                               1
 ACTION:REG 24-08-21 10:08 OP:vab  STATUS:               ID:20240820213427     I
 2024-08-20-2134-27S.MV____045                                                 6
 VOLC MAIN l                                                                   3
 STAT SP IPHASW D HRMM SECON CODA AMPLIT PERI AZIMU VELO AIN AR TRES W  DIS CAZ7
 MBLG HZ IP       213449.694                                                    
                                                                                
 2024  820 2357  9.0 LV                      MVO                               1
 ACTION:REG 24-08-21 10:08 OP:vab  STATUS:               ID:20240820235709     I
 2024-08-20-2357-09S.MV____045                                                 6
 VOLC MAIN r                                                                   3
 STAT SP IPHASW D HRMM SECON CODA AMPLIT PERI AZIMU VELO AIN AR TRES W  DIS CAZ7
                                                                                
 2024  821 0842 40.5 LV 16.713 -62.179  2.7  MVO  9 0.2 1.5LMVO                1
 GAP= 66   MVO  0.67       0.5     0.5  1.2  0.5421E-01  0.1258E+00  0.1528E-01E
 2024  821 0842 40.536  16.71314  -62.17923    2.736  0.239 MVO                H
 ACTION:UP  24-08-21 13:16 OP:nn   STATUS:               ID:20240821084213     I
 OLDACT:REG 24-08-21 10:09 OP:vab  STATUS:               ID:20240821084213     3
 2024-08-21-0842-13S.MV____045                                                 6
 VOLC MAIN t                                                                   3
 STAT SP IPHASW D HRMM SECON CODA AMPLIT PERI AZIMU VELO AIN AR TRES W  DIS CAZ7
 MSS1 SZ EP        84241.709                             154    0.2910 0.97   9 
 MSS1 SZ ES        84242.274                             154    0.2010 0.97   9 
 MBLY HZ IP        84241.799                             140    0.3010 1.55 306 
 MBLY H1 IS        84242.346                             140    0.1210 1.55 306 
 MBLY H1  IAML     84244.492       406.5 0.12                          1.55 306 
 MBFR HZ IP        84241.855                             132    0.1110 2.23 177 
 MBFR H2 IS        84242.410                             132   -0.2410 2.23 177 
 MBFR H2  IAML     84244.925       482.7 0.13                          2.23 177 
 MBLG HZ IP        84241.870                             129    0.1910 2.24  54 
 MBLG H2 IS        84242.400                             129   -0.1410 2.24  54 
 MBLG H2  IAML     84244.562       269.5 0.24                          2.24  54 
 MBRY BZ IP        84241.964                             122    0.0310 2.96 110 
 MBRY BE IS        84242.686                             122   -0.2910 2.96 110 
 MBBY HZ IP        84242.053                             119    0.1410 3.02 235 
 MBBY H2 IS        84242.699                             119   -0.2510 3.02 235 
 MBBY H2  IAML     84247.881       130.5 0.25                          3.02 235 
 MBGH HZ EP        84242.246                             119    0.2010 3.30 288 
 MBGH H2 ES        84243.310                             119    0.1210 3.30 288 
 MBWH BZ IP        84242.220                             119    0.1110 3.45 339 
 MBWH BE ES        84242.964                             119   -0.3310 3.45 339 
 MBFL HZ EP        84242.773                             108    0.0110 5.28 318 
 MBFL H2 IS        84243.849                             108   -0.5810 5.28 318 
                                                                                
 2024  821 1118 21.0 LV                      MVO                               1
 ACTION:REG 24-08-21 12:50 OP:nn   STATUS:               ID:20240821111821     I
 2024-08-21-1118-21S.MV____045                                                 6
 VOLC MAIN r                                                                   3
 STAT SP IPHASW D HRMM SECON CODA AMPLIT PERI AZIMU VELO AIN AR TRES W  DIS CAZ7
                                                                                
 2024  821 2303 33.8 LV 16.723 -62.189  4.8  MVO 10 0.2 1.8LMVO                1
 GAP= 89   MVO  0.65       0.9     1.1  0.5  0.2123E+00  0.7501E-01 -0.2214E-01E
 2024  821 2303 33.816  16.72267  -62.18902    4.789  0.231 MVO                H
 ACTION:UP  24-08-22 13:09 OP:nn   STATUS:               ID:20240821230306     I
 OLDACT:REG 24-08-22 12:57 OP:nn   STATUS:               ID:20240821230306     3
 2024-08-21-2303-06S.MV____045                                                 6
 VOLC MAIN t                                                                   3
 STAT SP IPHASW D HRMM SECON CODA AMPLIT PERI AZIMU VELO AIN AR TRES W  DIS CAZ7
 MBLY HZ EP       23 334.986                             175   -0.2710 0.26 235 
 MBLY H2 ES       23 336.249                             175   -0.0910 0.26 235 
 MBLY H2  IAML    23 337.453       893.8 0.20                          0.26 235 
 MSS1 SZ IP       23 335.712                             159    0.3510 1.21  94 
 MSS1 SZ ES       23 336.643                             159    0.1210 1.21  94 
 MBGH HZ EP       23 335.266                              36   -0.1310 2.09 270 
 MBGH H2 IS       23 336.602                              36    0.0210 2.09 270 
 MBGH H2  IAML    23 338.779       550.4 0.20                          2.09 270 
 MBWH BZ IP       23 335.605                              36    0.1710 2.17 355 
 MBWH BE ES       23 336.476                              36   -0.1710 2.17 355 
 MBLG HZ EP       23 335.670                              36    0.1710 2.87  85 
 MBLG H2 IS       23 336.363                              36   -0.4110 2.87  85 
 MBLG H2  IAML    23 340.348       261.0 0.17                          2.87  85 
 MBBY HZ EP       23 335.731                              36    0.2310 3.12 208 
 MBBY H1 ES       23 336.648                              36   -0.1210 3.12 208 
 MBFR HZ IP       23 335.805                              36    0.1110 3.49 160 
 MBFR H1 IS       23 336.674                              36   -0.4410 3.49 160 
 MBFR H1  IAML    23 337.929       451.3 0.19                          3.49 160 
 MBFL HZ EP       23 335.902                              36    0.2610 3.80 319 
 MBFL H2 ES       23 336.935                              36   -0.0810 3.80 319 
 MBRY BZ EP       23 336.035                              36    0.2610 4.35 119 
 MBRY BE ES       23 337.339                              36    0.0910 4.35 119 
 MBRV BZ EP       23 336.902                              36    0.2610 9.84 356 
 MBRV BE ES       23 338.444                              36   -0.3210 9.84 356 
                                                                                
 2024  822 2358 45.0 LV 16.713 -62.178  2.4  MVO  9 0.2 1.5LMVO                1
 GAP= 70   MVO  0.49       0.4     0.4  0.9  0.2536E-01  0.7920E-01  0.2248E-01E
 2024  822 2358 44.995  16.71321  -62.17752    2.379  0.167 MVO                H
 ACTION:UP  24-08-23 12:57 OP:nn   STATUS:               ID:20240822235818     I
 OLDACT:REG 24-08-23 12:41 OP:nn   STATUS:               ID:20240822235818     3
 2024-08-22-2358-18S.MV____045                                                 6
 VOLC MAIN t                                                                   3
 STAT SP IPHASW D HRMM SECON CODA AMPLIT PERI AZIMU VELO AIN AR TRES W  DIS CAZ7
 MSS1 SZ IP       235845.957                             149    0.2110 0.95 359 
 MSS1 SZ IS       235846.346                             149    0.0410 0.95 359 
 MBLY HZ EP       235846.050                             131    0.1510 1.70 302 
 MBLY H1 IS       235846.645                             131    0.0710 1.70 302 
 MBLY H1  IAML    235849.400       575.4 0.20                          1.70 302 
 MBLG HZ IP       235846.154                             124    0.1510 2.09  51 
 MBLG H2 IS       235846.796                             124    0.0310 2.09  51 
 MBLG H2  IAML    235849.035       370.3 0.12                          2.09  51 
 MBFR HZ IP       235846.221                             127    0.1110 2.24 181 
 MBFR H1 ES       235846.778                             127   -0.1810 2.24 181 
 MBRY BZ EP       235846.300                             118    0.0410 2.79 112 
 MBRY BN IS       235847.009                             118   -0.2010 2.79 112 
 MBRY BN  IAML    235849.261       286.0 0.26                          2.79 112 
 MBBY HZ EP       235846.484                             112    0.1210 3.17 237 
 MBBY H1 IS       235847.217                             112   -0.1810 3.17 237 
 MBBY H1  IAML    235849.753       198.7 0.15                          3.17 237 
 MBGH HZ EP       235846.645                             113    0.1410 3.48 287 
 MBGH H1 ES       235847.822                             113    0.1810 3.48 287 
 MBWH BZ EP       235846.614                             114    0.0810 3.51 336 
 MBWH BE ES       235847.289                             114   -0.3910 3.51 336 
 MBFL HZ EP       235847.034                             104   -0.1910 5.40 316 
 MBFL H2 ES       235848.730                             104   -0.1710 5.40 316 
                                                                                
 2024  823 0252 45.0 LV 16.712 -62.177  4.0  MVO 10 0.3 2.6LMVO                1
 GAP= 73   MVO  0.70       0.8     0.8  0.7  0.3664E-01  0.8348E-01 -0.1556E+00E
 2024  823 0252 44.966  16.71202  -62.17710    4.017  0.252 MVO                H
 ACTION:UP  24-08-23 12:58 OP:nn   STATUS:               ID:20240823025217     I
 OLDACT:UP  24-08-23 12:57 OP:nn   STATUS:               ID:20240823025217     3
 OLDACT:REG 24-08-23 12:49 OP:nn   STATUS:               ID:20240823025217     3
 2024-08-23-0252-17S.MV____045                                                 6
 VOLC MAIN t                                                                   3
 STAT SP IPHASW D HRMM SECON CODA AMPLIT PERI AZIMU VELO AIN AR TRES W  DIS CAZ7
 MSS1 SZ IP        25246.489                             155    0.1910 1.09 356 
 MSS1 SZ IS        25247.329                             155    0.0310 1.09 356 
 MBLY HZ EP        25246.597                             138    0.2310 1.81 305 
 MBLY H2 IS        25247.134                             138   -0.2810 1.81 305 
 MBLY H2  IAML     25248.366      5343.0 0.11                          1.81 305 
 MBFR HZ IP        25246.667                             134    0.1710 2.11 183 
 MBFR H1 IS        25247.144                             134   -0.4910 2.11 183 
 MBLG HZ IP        25246.650                             131    0.2410 2.14  48 
 MBLG H2 IS        25247.231                             131   -0.2710 2.14  48 
 MBLG H2  IAML     25248.232      4855.7 0.17                          2.14  48 
 MBRY BZ IP        25246.752                             121    0.1910 2.71 109 
 MBRY BN ES        25247.712                             121   -0.0610 2.71 109 
 MBBY HZ IP        25246.874                             111    0.2510 3.14 240 
 MBBY H1 IS        25247.552                             111   -0.3110 3.14 240 
 MBBY H1  IAML     25249.161      1853.7 0.14                          3.14 240 
 MBGH HZ EP        25247.079                             108    0.2910 3.56 289 
 MBGH H1 ES        25248.373                             108    0.2210 3.56 289 
 MBWH BZ EP        25246.984                             108    0.1610 3.65 336 
 MBWH BE IS        25247.877                             108   -0.3510 3.65 336 
 MBFL HZ EP        25247.417                              36    0.1610 5.53 317 
 MBFL H2 ES        25248.772                              36   -0.2110 5.53 317 
 MBRV BZ EP        25248.390                              36    0.1910 11.2 350 
 MBRV BE ES        25250.270                              36   -0.3510 11.2 350 
                                                                                
 2024  823 0328  4.6 LV 16.714 -62.180  2.8  MVO  9 0.2 1.6LMVO                1
 GAP= 64   MVO  0.67       0.5     0.5  1.2  0.5627E-01  0.1126E+00  0.2525E-01E
 2024  823 0328  4.637  16.71394  -62.17992    2.754  0.238 MVO                H
 ACTION:UP  24-08-23 12:58 OP:nn   STATUS:               ID:20240823032737     I
 OLDACT:REG 24-08-23 12:55 OP:nn   STATUS:               ID:20240823032737     3
 2024-08-23-0327-37S.MV____045                                                 6
 VOLC MAIN t                                                                   3
 STAT SP IPHASW D HRMM SECON CODA AMPLIT PERI AZIMU VELO AIN AR TRES W  DIS CAZ7
 MSS1 SZ IP        328 5.841                             156    0.3310 0.90  15 
 MSS1 SZ IS        328 6.371                             156    0.2010 0.90  15 
 MBLY HZ IP        328 5.925                             142    0.3510 1.44 305 
 MBLY H1 ES        328 6.393                             142    0.1110 1.44 305 
 MBLY H1  IAML     328 9.402       359.5 0.17                          1.44 305 
 MBLG HZ IP        328 6.009                             129    0.2210 2.25  57 
 MBLG H2 ES        328 6.547                             129   -0.1110 2.25  57 
 MBFR HZ IP        328 6.005                             131    0.1310 2.33 175 
 MBFR H2 IS        328 6.578                             131   -0.2310 2.33 175 
 MBFR H2  IAML     328 8.448       563.9 0.21                          2.33 175 
 MBBY HZ EP        328 6.154                             119    0.1410 3.01 233 
 MBBY H2 ES        328 6.836                             119   -0.2110 3.01 233 
 MBRY BZ EP        328 6.081                             121    0.0110 3.06 111 
 MBRY BE IS        328 6.784                             121   -0.3610 3.06 111 
 MBRY BE  IAML     328 9.211       293.8 0.32                          3.06 111 
 MBGH HZ EP        328 6.367                             120    0.2510 3.21 287 
 MBGH H2 ES        328 7.220                             120   -0.0110 3.21 287 
 MBWH BZ EP        328 6.287                             120    0.1110 3.34 339 
 MBWH BE ES        328 6.946                             120   -0.3910 3.34 339 
 MBFL HZ EP        328 6.709                             109   -0.1110 5.17 318 
 MBFL H2 ES        328 8.040                             109   -0.4210 5.17 318 
                                                                                
