 2024  8 9 1055 11.6 LV 16.713 -62.178  2.8  MVO  9 0.2 1.5LMVO                1
 GAP= 69   MVO  0.68       0.6     0.6  1.3  0.5926E-01  0.1506E+00  0.1597E-01E
 2024  8 9 1055 11.588  16.71338  -62.17770    2.815  0.242 MVO                H
 ACTION:UP  24-08-09 13:19 OP:nn   STATUS:               ID:20240809105444     I
 OLDACT:REG 24-08-09 12:53 OP:rcs  STATUS:               ID:20240809105444     3
 2024-08-09-1054-44S.MV____045                                                 6
 VOLC MAIN t                                                                   3
 STAT SP IPHASW D HRMM SECON CODA AMPLIT PERI AZIMU VELO AIN AR TRES W  DIS CAZ7
 MSS1 SZ IP       105512.793                             156    0.3010 0.93 360 
 MSS1 SZ IS       105513.322                             156    0.1610 0.93 360 
 MBLY HZ EP       105512.861                             139    0.2510 1.67 302 
 MBLY H1 IS       105513.428                             139    0.0510 1.67 302 
 MBLY H1  IAML    105514.569       365.5 0.20                          1.67 302 
 MBLG HZ IP       105512.927                             132    0.2210 2.09  52 
 MBLG H2 IS       105513.490                             132   -0.0610 2.09  52 
 MBLG H2  IAML    105514.875       225.6 0.09                          2.09  52 
 MBFR HZ EP       105512.901                             133    0.0810 2.26 181 
 MBFR H1 IS       105513.542                             133   -0.2110 2.26 181 
 MBRY BZ IP       105513.014                             124    0.0610 2.82 112 
 MBRY BE IS       105513.615                             124   -0.3610 2.82 112 
 MBRY BE  IAML    105514.699       326.4 0.22                          2.82 112 
 MBBY HZ EP       105513.192                             119    0.1610 3.17 237 
 MBBY H2 ES       105513.914                             119   -0.2010 3.17 237 
 MBGH HZ EP       105513.325                             119    0.1610 3.45 287 
 MBGH H2 ES       105514.584                             119    0.2310 3.45 287 
 MBWH BZ EP       105513.342                             120    0.1510 3.49 336 
 MBWH BE IS       105514.150                             120   -0.2410 3.49 336 
 MBFL HZ EP       105513.747                             109   -0.1110 5.37 316 
 MBFL H2 ES       105514.933                             109   -0.6310 5.37 316 
                                                                                
 2024  8 9 1055 18.9 LV 16.714 -62.179  2.7  MVO  9 0.2 1.4LMVO                1
 GAP= 65   MVO  0.54       0.4     0.5  1.0  0.3573E-01  0.1014E+00  0.1454E-01E
 2024  8 9 1055 18.940  16.71361  -62.17928    2.732  0.188 MVO                H
 ACTION:UP  24-08-09 13:27 OP:nn   STATUS:               ID:20240809105514     I
 OLDACT:REG 24-08-09 12:54 OP:rcs  STATUS:               ID:20240809105514     3
 2024-08-09-1055-14S.MV____045                                                 6
 VOLC MAIN t                                                                   3
 STAT SP IPHASW D HRMM SECON CODA AMPLIT PERI AZIMU VELO AIN AR TRES W  DIS CAZ7
 MSS1 SZ EP       105520.082                             155    0.2710 0.92  10 
 MSS1 SZ IS       105520.592                             155    0.1310 0.92  10 
 MBLY HZ EP       105520.174                             141    0.2810 1.51 304 
 MBLY H1 ES       105520.703                             141    0.0910 1.51 304 
 MBLG HZ EP       105520.195                             129    0.1210 2.21  55 
 MBLG H2 IS       105520.757                             129   -0.1710 2.21  55 
 MBLG H2  IAML    105522.155       384.1 0.10                          2.21  55 
 MBFR HZ EP       105520.229                             132    0.0710 2.28 177 
 MBFR H2 IS       105520.837                             132   -0.2410 2.28 177 
 MBRY BZ IP       105520.286                             122   -0.0610 2.99 111 
 MBRY BN IS       105521.308                             122   -0.0910 2.99 111 
 MBRY BN  IAML    105522.043       444.1 0.20                          2.99 111 
 MBBY HZ EP       105520.472                             118    0.1510 3.04 235 
 MBBY H2 IS       105521.193                             118   -0.1710 3.04 235 
 MBGH HZ EP       105520.684                             119    0.2410 3.28 288 
 MBWH BZ EP       105520.569                             119    0.0710 3.40 339 
 MBWH BE IS       105521.461                             119   -0.2010 3.40 339 
 MBFL HZ EP       105521.043                             108   -0.1010 5.24 317 
 MBFL H2 IS       105522.425                             108   -0.3810 5.24 317 
 MBFL H2  IAML    105523.835        65.3 0.17                          5.24 317 
                                                                                
 2024  810 2255 59.8 LV 16.710 -62.177  3.7  MVO  9 0.2 1.6LMVO                1
 GAP= 80   MVO  0.61       0.6     0.6  0.6  0.2961E-01  0.7792E-01 -0.8022E-01E
 2024  810 2255 59.789  16.70968  -62.17680    3.655  0.217 MVO                H
 ACTION:UP  24-08-12 12:45 OP:1    STATUS:               ID:20240810225533     I
 OLDACT:REG 24-08-12 12:42 OP:nn   STATUS:               ID:20240810225533     3
 2024-08-10-2255-33S.MV____045                                                 6
 VOLC MAIN t                                                                   3
 STAT SP IPHASW D HRMM SECON CODA AMPLIT PERI AZIMU VELO AIN AR TRES W  DIS CAZ7
 MSS1 SZ IP       2256 1.213                             155    0.1510 1.35 356 
 MSS1 SZ IS       2256 1.989                             155   -0.0310 1.35 356 
 MBFR HZ EP       2256 1.445                             148    0.2610 1.85 184 
 MBFR H1 IS       2256 2.014                             148   -0.2210 1.85 184 
 MBFR H1  IAML    2256 3.899       323.8 0.16                          1.85 184 
 MBLY HZ EP       2256 1.317                             144    0.1610 1.99 310 
 MBLY H1 ES       2256 1.912                             144   -0.2610 1.99 310 
 MBLY H1  IAML    2256 3.941       310.4 0.12                          1.99 310 
 MBLG HZ IP       2256 1.389                             140    0.1810 2.30  42 
 MBLG H1 ES       2256 1.974                             140   -0.3010 2.30  42 
 MBRY BZ EP       2256 1.524                             137    0.2210 2.60 104 
 MBRY BE IS       2256 2.226                             137   -0.2210 2.60 104 
 MBRY BE  IAML    2256 4.624       254.7 0.33                          2.60 104 
 MBBY HZ IP       2256 1.611                             130    0.2310 3.05 244 
 MBBY H2 ES       2256 2.265                             130   -0.3210 3.05 244 
 MBGH HZ EP       2256 1.805                             127    0.1710 3.68 293 
 MBGH H1 ES     D 2256 3.136                             127    0.1210 3.68 293 
 MBWH BZ EP       2256 1.693                             126   -0.0210 3.90 337 
 MBWH BN ES       2256 3.356                             126    0.2010 3.90 337 
 MBFL HZ EP       2256 2.264                              46    0.0710 5.74 318 
 MBFL H2 IS       2256 3.616                              46   -0.3910 5.74 318 
                                                                                
 2024  813 0106  8.1 LV 16.712 -62.176  4.0  MVO 10 0.3 2.4LMVO                1
 GAP= 75   MVO  0.74       0.9     0.8  0.8  0.5138E-01  0.1403E+00 -0.1312E+00E
 2024  813 0106  8.065  16.71177  -62.17637    4.043  0.265 MVO                H
 ACTION:UP  24-08-13 13:17 OP:nn   STATUS:               ID:20240813010540     I
 OLDACT:REG 24-08-13 13:05 OP:nn   STATUS:               ID:20240813010540     3
 2024-08-13-0105-40S.MV____045                                                 6
 VOLC MAIN t                                                                   3
 STAT SP IPHASW D HRMM SECON CODA AMPLIT PERI AZIMU VELO AIN AR TRES W  DIS CAZ7
 MSS1 SZ IP        1 6 9.556                             154    0.1510 1.12 353 
 MSS1 SZ IS        1 610.864                             154    0.4510 1.12 353 
 MBLY HZ IP        1 6 9.709                             137    0.2210 1.89 304 
 MBLY H2 IS     C  1 610.265                             137   -0.2910 1.89 304 
 MBLY H2  IAML     1 612.569      2906.6 0.21                          1.89 304 
 MBFR HZ IP        1 6 9.758                             135    0.1710 2.08 185 
 MBFR H2 IS        1 610.324                             135   -0.4110 2.08 185 
 MBLG HZ IP        1 6 9.727                             132    0.2210 2.10  46 
 MBLG H1 IS     C  1 610.279                             132   -0.3110 2.10  46 
 MBRY BZ IP        1 6 9.827                             123    0.1810 2.62 109 
 MBRY BE IS        1 610.549                             123   -0.2910 2.62 109 
 MBRY BE  IAML     1 612.924      2667.0 0.22                          2.62 109 
 MBBY HZ IP        1 6 9.979                             111    0.2410 3.20 241 
 MBBY H2 ES        1 610.843                             111   -0.1510 3.20 241 
 MBGH HZ EP        1 610.179                             108    0.2710 3.64 289 
 MBGH H2 ES        1 611.241                             108   -0.0610 3.64 289 
 MBWH BZ IP        1 610.033                             108    0.0910 3.71 335 
 MBWH BE IS        1 610.954                             108   -0.4010 3.71 335 
 MBWH BE  IAML     1 612.856      1420.0 0.20                          3.71 335 
 MBFL HZ EP        1 610.527                              36    0.1610 5.60 317 
 MBFL H2 ES        1 611.705                              36   -0.3910 5.60 317 
 MBRV BZ EP        1 611.451                              36    0.1510 11.2 349 
                                                                                
 2024  813 0725 57.8 LV 16.714 -62.182  3.0  MVO  7 0.2 1.7LMVO                1
 GAP=142   MVO  0.67       0.6     0.9  1.3  0.9876E-01  0.3445E+00 -0.1033E-01E
 2024  813 0725 57.760  16.71378  -62.18210    2.962  0.238 MVO                H
 ACTION:UP  24-08-13 13:23 OP:nn   STATUS:               ID:20240813072531     I
 OLDACT:REG 24-08-13 13:07 OP:nn   STATUS:               ID:20240813072531     3
 2024-08-13-0725-31S.MV____045                                                 6
 VOLC MAIN t                                                                   3
 STAT SP IPHASW D HRMM SECON CODA AMPLIT PERI AZIMU VELO AIN AR TRES W  DIS CAZ7
 MSS1 SZ EP        72558.914                             155    0.1910 1.00  28 
 MSS1 SZ IS        72559.477                             155    0.0310 1.00  28 
 MBLY HZ IP        72559.015                             149    0.2810 1.27 311 
 MBLY H1 IS        72559.589                             149    0.1310 1.27 311 
 MBLY H1  IAML     726 1.732       848.2 0.16                          1.27 311 
 MBFR HZ IP        72559.077                             134    0.0110 2.34 169 
 MBFR H2 ES        72559.719                             134   -0.3210 2.34 169 
 MBFR H2  IAML     726 2.095       576.3 0.12                          2.34 169 
 MBBY HZ IP        72559.259                             124    0.1410 2.82 231 
 MBBY H2 IS        72559.894                             124   -0.2410 2.82 231 
 MBGH HZ EP        72559.460                             125    0.2410 2.99 289 
 MBGH H2 IS        726 0.617                             125    0.3110 2.99 289 
 MBGH H2  IAML     726 2.631       314.4 0.23                          2.99 289 
 MBWH BZ EP        72559.406                             123    0.0810 3.28 343 
 MBWH BE ES        726 0.220                             123   -0.2810 3.28 343 
 MBFL HZ EP        72559.817                             111   -0.1010 5.03 320 
 MBFL H2 ES        726 1.057                             111   -0.4810 5.03 320 
                                                                                
 2024  813 2115 20.2 LV 16.721 -62.182  4.8  MVO  8 0.3 1.8LMVO                1
 GAP= 96   MVO  0.71       1.4     1.6  2.7  0.3608E+00  0.1596E+01  0.3967E+00E
 2024  813 2115 20.181  16.72064  -62.18163    4.784  0.253 MVO                H
 ACTION:UP  24-08-14 12:56 OP:nn   STATUS:               ID:20240813211454     I
 OLDACT:REG 24-08-14 12:43 OP:nn   STATUS:               ID:20240813211454     3
 2024-08-13-2114-54S.MV____045                                                 6
 VOLC MAIN t                                                                   3
 STAT SP IPHASW D HRMM SECON CODA AMPLIT PERI AZIMU VELO AIN AR TRES W  DIS CAZ7
 MSS1 SZ EP       211522.003                             172    0.3310 0.43  72 
 MSS1 SZ ES       211523.139                             172    0.3510 0.43  72 
 MBLY HZ EP       211521.816                             162    0.1510 1.00 274 
 MBLY H2 IS       211522.724                             162   -0.0510 1.00 274 
 MBLY H2  IAML    211525.835       417.9 0.17                          1.00 274 
 MBLG HZ EP       211521.875                              36    0.1310 2.12  77 
 MBLG H2 IS     C 211522.661                              36   -0.2610 2.12  77 
 MBLG H2  IAML    211523.756       282.9 0.11                          2.12  77 
 MBWH BZ EP       211521.857                              36   -0.0110 2.58 337 
 MBWH BE IS       211522.699                              36   -0.4310 2.58 337 
 MBWH BE  IAML    211524.355       301.7 0.20                          2.58 337 
 MBGH HZ EP       211522.031                              36    0.1410 2.89 274 
 MBGH H1 ES       211523.504                              36    0.3210 2.89 274 
 MBFR HZ EP       211522.068                              36    0.0710 3.08 173 
 MBFR H2 ES       211522.970                              36   -0.3910 3.08 173 
 MBFR H2  IAML    211523.588       711.2 0.15                          3.08 173 
 MBBY HZ EP       211522.087                              36    0.1810 3.38 221 
 MBBY H2 ES       211522.867                              36   -0.3410 3.38 221 
 MBFL HZ EP       211522.206                              36    0.0810 4.51 313 
 MBFL H2 ES       211523.318                              36   -0.2710 4.51 313 
                                                                                
 2024  813 2136 53.8 LV 16.711 -62.177  4.1  MVO  9 0.3 2.7LMVO                1
 GAP= 77   MVO  0.79       1.0     0.9  1.0  0.5545E-01  0.2130E+00 -0.1524E+00E
 2024  813 2136 53.810  16.71055  -62.17714    4.061  0.286 MVO                H
 ACTION:UP  24-08-14 12:56 OP:nn   STATUS:               ID:20240813213626     I
 OLDACT:REG 24-08-14 12:54 OP:nn   STATUS:               ID:20240813213626     3
 2024-08-13-2136-26S.MV____045                                                 6
 VOLC MAIN t                                                                   3
 STAT SP IPHASW D HRMM SECON CODA AMPLIT PERI AZIMU VELO AIN AR TRES W  DIS CAZ7
 MSS1 SZ IP     C 213655.384                             152    0.2110 1.25 357 
 MSS1 SZ ES       213656.676                             152    0.4810 1.25 357 
 MBLY HZ EP       213655.464                             137    0.2210 1.90 309 
 MBLY H1 IS       213655.933                             137   -0.3810 1.90 309 
 MBLY H1  IAML    213659.331      6775.8 0.19                          1.90 309 
 MBFR HZ EP       213655.491                             138    0.1810 1.94 183 
 MBFR H2 IS       213656.076                             138   -0.3610 1.94 183 
 MBLG HZ IP       213655.499                             129    0.2110 2.25  45 
 MBLG H1 IS       213656.151                             129   -0.2510 2.25  45 
 MBRY BZ IP       213655.578                             123    0.1710 2.66 106 
 MBRY BE IS       213656.223                             123   -0.3810 2.66 106 
 MBRY BE  IAML    213658.187      6187.9 0.17                          2.66 106 
 MBBY HZ EP       213655.800                             114    0.3510 3.06 242 
 MBBY H2 IS       213656.452                             114   -0.2210 3.06 242 
 MBBY H2  IAML    2137 0.115      3963.9 0.19                          3.06 242 
 MBGH HZ EP       213655.964                             109    0.3110 3.61 292 
 MBGH H2 ES       213656.912                             109   -0.1210 3.61 292 
 MBWH BZ IP       213655.831                             108    0.1110 3.80 337 
 MBWH BE IS       213656.781                             108   -0.3710 3.80 337 
 MBWH BE  IAML    213658.673      3387.5 0.34                          3.80 337 
 MBFL HZ EP       213656.269                              36    0.1610 5.64 318 
 MBFL H2 IS       213657.512                              36   -0.3310 5.64 318 
                                                                                
 2024  815 2256 21.3 LV 16.712 -62.178  3.0  MVO  9 0.2 2.0LMVO                1
 GAP= 71   MVO  0.58       0.5     0.5  1.1  0.2688E-01  0.9318E-01  0.1148E-01E
 2024  815 2256 21.260  16.71199  -62.17801    2.961  0.204 MVO                H
 ACTION:UP  24-08-16 12:59 OP:nn   STATUS:               ID:20240815225553     I
 OLDACT:REG 24-08-16 12:36 OP:nn   STATUS:               ID:20240815225553     3
 2024-08-15-2255-53S.MV____045                                                 6
 VOLC MAIN t                                                                   3
 STAT SP IPHASW D HRMM SECON CODA AMPLIT PERI AZIMU VELO AIN AR TRES W  DIS CAZ7
 MSS1 SZ IP       225622.414                             154    0.1710 1.09   1 
 MSS1 SZ ES       225623.393                             154    0.4210 1.09   1 
 MBLY HZ IP       225622.528                             140    0.1910 1.73 307 
 MBLY H2 IS       225623.042                             140   -0.1110 1.73 307 
 MBLY H2  IAML    225625.240      1282.6 0.21                          1.73 307 
 MBFR HZ IP       225622.635                             137    0.1410 2.10 180 
 MBFR H2 ES       225623.234                             137   -0.1910 2.10 180 
 MBLG HZ EP       225622.611                             132    0.1610 2.21  49 
 MBLG H1 IS       225623.172                             132   -0.1810 2.21  49 
 MBLG H1  IAML    225624.576      1130.8 0.11                          2.21  49 
 MBRY BZ IP       225622.748                             127    0.1010 2.80 109 
 MBRY BN IS       225623.483                             127   -0.2110 2.80 109 
 MBRY BN  IAML    225624.791      1147.4 0.18                          2.80 109 
 MBBY HZ IP       225622.821                             122    0.1210 3.06 239 
 MBBY H1 ES       225623.564                             122   -0.2110 3.06 239 
 MBBY H1  IAML    225625.344       732.1 0.20                          3.06 239 
 MBGH HZ IP       225622.995                             121    0.1210 3.47 290 
 MBGH H2 ES       225624.197                             121    0.1110 3.47 290 
 MBWH BZ EP       225622.914                             120   -0.0210 3.61 338 
 MBWH BE ES       225623.788                             120   -0.4110 3.61 338 
 MBWH BE  IAML    225625.258       474.3 0.21                          3.61 338 
 MBFL HZ EP       225623.386                             110   -0.2010 5.46 318 
                                                                                
