 2024  816 0623 56.7 LV 16.714 -62.178  2.8  MVO  9 0.2 1.9LMVO                1
 GAP= 66   MVO  0.62       0.5     0.5  1.1  0.5119E-01  0.1156E+00  0.1921E-01E
 2024  816 0623 56.658  16.71391  -62.17846    2.824  0.220 MVO                H
 ACTION:UP  24-08-16 13:08 OP:nn   STATUS:               ID:20240816062329     I
 OLDACT:REG 24-08-16 12:37 OP:nn   STATUS:               ID:20240816062329     3
 2024-08-16-0623-29S.MV____045                                                 6
 VOLC MAIN t                                                                   3
 STAT SP IPHASW D HRMM SECON CODA AMPLIT PERI AZIMU VELO AIN AR TRES W  DIS CAZ7
 MSS1 SZ IP        62357.716                             157    0.1610 0.88   5 
 MSS1 SZ ES        62358.384                             157    0.1610 0.88   5 
 MBLY HZ EP        62357.883                             141    0.2310 1.57 302 
 MBLY H2 IS        62358.473                             141    0.0710 1.57 302 
 MBLY H2  IAML     624 0.769      1079.8 0.19                          1.57 302 
 MBLG HZ IP        62357.981                             131    0.1910 2.12  55 
 MBLG H2 IS        62358.613                             131   -0.0210 2.12  55 
 MBLG H2  IAML     624 2.615       572.4 0.22                          2.12  55 
 MBFR HZ EP        62357.992                             133    0.0810 2.31 179 
 MBFR H2 IS        62358.592                             133   -0.2610 2.31 179 
 MBFR H2  IAML     624 1.412      1083.2 0.18                          2.31 179 
 MBRY BZ IP        62358.098                             124    0.0410 2.92 112 
 MBRY BN IS        62358.874                             124   -0.2310 2.92 112 
 MBBY HZ IP        62358.228                             119    0.1410 3.13 235 
 MBBY H2 ES        62358.954                             119   -0.2110 3.13 235 
 MBGH HZ EP        62358.405                             120    0.2010 3.36 287 
 MBGH H1 ES        62359.672                             120    0.3010 3.36 287 
 MBWH BZ EP        62358.342                             120    0.1110 3.40 337 
 MBWH BE ES        62359.082                             120   -0.3310 3.40 337 
 MBFL HZ EP        62358.797                             109   -0.0910 5.28 317 
 MBFL H2 ES        624 0.052                             109   -0.5110 5.28 317 
                                                                                
 2024  817 1559 27.0 LV 16.713 -62.179  3.7  MVO  7 0.2 2.1LMVO                1
 GAP=165   MVO  0.68       0.8     1.7  0.6 -0.2473E-01  0.7011E+00 -0.9167E-01E
 2024  817 1559 27.018  16.71348  -62.17941    3.698  0.245 MVO                H
 ACTION:UP  24-08-19 12:43 OP:nn   STATUS:               ID:20240817155900     I
 OLDACT:REG 24-08-19 12:19 OP:nn   STATUS:               ID:20240817155900     3
 2024-08-17-1559-00S.MV____045                                                 6
 VOLC MAIN t                                                                   3
 STAT SP IPHASW D HRMM SECON CODA AMPLIT PERI AZIMU VELO AIN AR TRES W  DIS CAZ7
 MSS1 SZ EP       155928.454                             162    0.2010 0.94  11 
 MSS1 SZ ES       155929.114                             162   -0.0610 0.94  11 
 MBLY HZ EP       155928.547                             152    0.2510 1.51 305 
 MBLY H1 IS       155929.100                             152   -0.1510 1.51 305 
 MBLY H1  IAML    155930.180      1299.2 0.15                          1.51 305 
 MBFR HZ EP       155928.652                             143    0.1310 2.27 176 
 MBFR H2 IS       155929.239                             143   -0.4110 2.27 176 
 MBFR H2  IAML    155930.394      1645.3 0.16                          2.27 176 
 MBBY HZ IP       155928.808                              46    0.1910 3.02 235 
 MBBY H2 IS       155929.630                              46   -0.1910 3.02 235 
 MBBY H2  IAML    155931.609       535.2 0.14                          3.02 235 
 MBGH HZ EP       155928.997                              46    0.2610 3.28 288 
 MBGH H2 ES       155930.295                              46    0.2610 3.28 288 
 MBWH BZ IP       155928.901                              46    0.1110 3.41 339 
 MBWH BE ES       155929.869                              46   -0.2610 3.41 339 
 MBFL HZ EP       155929.408                              46    0.1410 5.24 318 
 MBFL H2 ES       155930.492                              46   -0.4710 5.24 318 
                                                                                
 2024  817 1936 46.2 LV 16.712 -62.180  2.7  MVO  8 0.2 1.3LMVO                1
 GAP= 68   MVO  0.53       0.5     0.5  1.1  0.6232E-02  0.1305E+00 -0.3052E-01E
 2024  817 1936 46.176  16.71155  -62.17979    2.735  0.185 MVO                H
 ACTION:UP  24-08-19 12:49 OP:nn   STATUS:               ID:20240817193620     I
 OLDACT:REG 24-08-19 12:31 OP:nn   STATUS:               ID:20240817193620     3
 2024-08-17-1936-20S.MV____045                                                 6
 VOLC MAIN t                                                                   3
 STAT SP IPHASW D HRMM SECON CODA AMPLIT PERI AZIMU VELO AIN AR TRES W  DIS CAZ7
 MSS1 SZ IP       193647.326                             150    0.2410 1.16  11 
 MSS1 SZ IS       193648.002                             150    0.2310 1.16  11 
 MBFR HZ IP       193647.466                             135    0.1310 2.06 175 
 MBFR H2 ES       193647.994                             135   -0.2110 2.06 175 
 MBLG HZ EP       193647.498                             127    0.1310 2.39  52 
 MBLG H2 IS       193648.086                             127   -0.1810 2.39  52 
 MBLG H2  IAML    193649.059       266.9 0.15                          2.39  52 
 MBBY HZ EP       193647.638                             120    0.1410 2.87 238 
 MBBY H2 IS       193648.275                             120   -0.2210 2.87 238 
 MBBY H2  IAML    193649.862       128.9 0.13                          2.87 238 
 MBRY BZ IP       193647.554                             122   -0.0210 2.96 107 
 MBRY BN IS       193648.610                             122   -0.0110 2.96 107 
 MBRY BN  IAML    193650.147       193.6 0.13                          2.96 107 
 MBGH HZ IP       193647.852                             119    0.1610 3.31 292 
 MBGH H2 IS       193649.011                             119    0.1810 3.31 292 
 MBGH H2  IAML    193651.015       142.4 0.19                          3.31 292 
 MBWH BZ IP       193647.798                             118   -0.0010 3.59 341 
 MBWH BN ES       193648.666                             118   -0.3510 3.59 341 
 MBFL HZ EP       193648.230                             108   -0.2110 5.37 320 
                                                                                
 2024  817 1937 26.2 LV 16.711 -62.179  2.5  MVO  8 0.2 1.3LMVO                1
 GAP= 70   MVO  0.58       0.5     0.5  1.3  0.1714E-01  0.6352E-01  0.6370E-01E
 2024  817 1937 26.159  16.71127  -62.17934    2.458  0.204 MVO                H
 ACTION:UP  24-08-19 12:53 OP:nn   STATUS:               ID:20240817193653     I
 OLDACT:REG 24-08-19 12:31 OP:nn   STATUS:               ID:20240817193653     3
 2024-08-17-1936-53S.MV____045                                                 6
 VOLC MAIN t                                                                   3
 STAT SP IPHASW D HRMM SECON CODA AMPLIT PERI AZIMU VELO AIN AR TRES W  DIS CAZ7
 MSS1 SZ EP       193727.260                             145    0.2710 1.18   8 
 MSS1 SZ IS       193727.790                             145    0.1910 1.18   8 
 MBLY HZ IP       193727.329                             133    0.2510 1.67 312 
 MBLY H2 IS       193727.909                             133    0.1410 1.67 312 
 MBLY H2  IAML    193728.680       212.3 0.19                          1.67 312 
 MBFR HZ IP       193727.401                             131    0.1710 2.03 176 
 MBFR H2 ES       193727.921                             131   -0.1210 2.03 176 
 MBLG HZ EP       193727.364                             122    0.0810 2.37  50 
 MBLG H1 IS       193727.994                             122   -0.1310 2.37  50 
 MBLG H1  IAML    193728.690       247.4 0.17                          2.37  50 
 MBBY HZ EP       193727.577                             115    0.1310 2.90 239 
 MBBY H2 ES       193728.199                             115   -0.2110 2.90 239 
 MBRY BZ EP       193727.498                             118    0.0210 2.91 106 
 MBRY BE IS       193728.220                             118   -0.2510 2.91 106 
 MBRY BE  IAML    193729.718       149.0 0.18                          2.91 106 
 MBGH HZ EP       193727.793                             115    0.1510 3.36 292 
 MBGH H1 ES       193728.478                             115   -0.2810 3.36 292 
 MBWH BZ EP       193727.761                             114    0.0110 3.64 340 
 MBWH BE ES       193728.522                             114   -0.4310 3.64 340 
                                                                                
 2024  818 0640  1.4 LV 16.714 -62.178  2.3  MVO  8 0.2                        1
 GAP= 78   MVO  0.54       0.4     0.4  1.4  0.3231E-01  0.8562E-01 -0.5491E-01E
 2024  818 0640  1.436  16.71391  -62.17807    2.297  0.186 MVO                H
 ACTION:UP  24-08-20 14:09 OP:rcs  STATUS:               ID:20240818063933     I
 OLDACT:REG 24-08-19 12:27 OP:nn   STATUS:               ID:20240818063933     3
 2024-08-18-0639-33S.MV____045                                                 6
 VOLC MAIN h                                                                   3
 STAT SP IPHASW D HRMM SECON CODA AMPLIT PERI AZIMU VELO AIN AR TRES W  DIS CAZ7
 MBLY HZ IP     D  640 2.626                             131    0.3410 1.61 301 
 MBLY H2 IS        640 3.029                             131    0.1010 1.61 301 
 MBLG HZ IP        640 2.661                             123    0.2310 2.09  54 
 MBLG H2 ES        640 3.227                             123    0.0510 2.09  54 
 MBFR HZ EP        640 2.656                             125    0.1010 2.31 180 
 MBFR H1 ES        640 3.290                             125   -0.1110 2.31 180 
 MBRY BZ IP     C  640 2.765                             116    0.0510 2.88 113 
 MBRY BE IS        640 3.401                             116   -0.2810 2.88 113 
 MBBY HZ EP        640 2.879                             111    0.0910 3.17 235 
 MBBY H1 IS        640 3.629                             111   -0.1810 3.17 235 
 MBGH HZ IP     C  640 3.087                             112    0.1810 3.40 286 
 MBGH H2 ES        640 4.117                             112    0.1110 3.40 286 
 MBWH BZ IP     C  640 2.984                             113    0.0610 3.42 336 
 MBWH BN ES        640 3.792                             113   -0.2410 3.42 336 
 MBFL HZ IP     C  640 3.451                             104   -0.1710 5.30 316 
 MBFL H2 ES        640 4.945                             104   -0.3110 5.30 316 
                                                                                
 2024  818  720 45.0 LV                      MVO                               1
 ACTION:REG 24-08-19 12:28 OP:nn   STATUS:               ID:20240818072045     I
 2024-08-18-0720-45S.MV____045                                                 6
 VOLC MAIN t                                                                   3
 STAT SP IPHASW D HRMM SECON CODA AMPLIT PERI AZIMU VELO AIN AR TRES W  DIS CAZ7
 MSS1 SZ IP        72110.903                                                    
                                                                                
 2024  818  831 19.0 LV                      MVO                               1
 ACTION:REG 24-08-20 13:35 OP:rcs  STATUS:               ID:20240818083119     I
 2024-08-18-0831-19S.MV____047                                                 6
 VOLC MAIN r                                                                   3
 STAT SP IPHASW D HRMM SECON CODA AMPLIT PERI AZIMU VELO AIN AR TRES W  DIS CAZ7
                                                                                
 2024  818  832 41.8 LV                      MVO                               1
 ACTION:REG 24-08-21 10:03 OP:vab  STATUS:               ID:20240818083241     I
 2024-08-18-0832-41S.MV____047                                                 6
 VOLC MAIN r                                                                   3
 STAT SP IPHASW D HRMM SECON CODA AMPLIT PERI AZIMU VELO AIN AR TRES W  DIS CAZ7
                                                                                
 2024  818  833 24.0 LV                      MVO                               1
 ACTION:REG 24-08-21 10:04 OP:vab  STATUS:               ID:20240818083324     I
 2024-08-18-0833-24S.MV____045                                                 6
 VOLC MAIN r                                                                   3
 STAT SP IPHASW D HRMM SECON CODA AMPLIT PERI AZIMU VELO AIN AR TRES W  DIS CAZ7
                                                                                
 2024  819 1322  7.3 LV 16.711 -62.178  2.5  MVO  8 0.2 1.3LMVO                1
 GAP= 73   MVO  0.55       0.5     0.5  1.2  0.1119E-01  0.7648E-01  0.1846E-01E
 2024  819 1322  7.339  16.71119  -62.17788    2.487  0.194 MVO                H
 ACTION:UP  24-08-20 13:15 OP:nn   STATUS:               ID:20240819132140     I
 OLDACT:REG 24-08-20 12:49 OP:nn   STATUS:               ID:20240819132140     3
 2024-08-19-1321-40S.MV____045                                                 6
 VOLC MAIN t                                                                   3
 STAT SP IPHASW D HRMM SECON CODA AMPLIT PERI AZIMU VELO AIN AR TRES W  DIS CAZ7
 MSS1 SZ IP       1322 8.399                             146    0.2310 1.18   1 
 MSS1 SZ IS       1322 9.036                             146    0.2410 1.18   1 
 MBLY HZ EP       1322 8.507                             132    0.2110 1.79 309 
 MBLY H1 IS       1322 9.024                             132    0.0010 1.79 309 
 MBLY H1  IAML    132211.222       299.0 0.14                          1.79 309 
 MBFR HZ IP       1322 8.589                             132    0.1710 2.01 180 
 MBFR H1 ES       1322 9.055                             132   -0.1710 2.01 180 
 MBLG HZ IP       1322 8.571                             124    0.1410 2.26  47 
 MBLG H2 IS       1322 9.111                             124   -0.1410 2.26  47 
 MBLG H2  IAML    132210.116       265.1 0.20                          2.26  47 
 MBRY BZ EP       1322 8.671                             120    0.0610 2.76 107 
 MBRY BE IS       1322 9.351                             120   -0.2210 2.76 107 
 MBBY HZ EP       1322 8.829                             115    0.1610 3.03 240 
 MBBY H2 ES       1322 9.496                             115   -0.1810 3.03 240 
 MBWH BZ EP       1322 9.071                             114    0.1110 3.70 338 
 MBWH BE IS       1322 9.779                             114   -0.4010 3.70 338 
 MBWH BE  IAML    132211.259        96.2 0.26                          3.70 338 
 MBFL HZ EP       1322 9.435                             105   -0.2010 5.54 318 
                                                                                
 2024  819 1322 46.5 LV 16.710 -62.177  2.7  MVO  7 0.1 0.9LMVO                1
 GAP= 79   MVO  0.41       0.4     0.5  1.0 -0.4668E-01 -0.7344E-02  0.5299E-01E
 2024  819 1322 46.508  16.71024  -62.17651    2.688  0.133 MVO                H
 ACTION:UP  24-08-20 13:15 OP:nn   STATUS:               ID:20240819132225     I
 OLDACT:REG 24-08-20 13:15 OP:nn   STATUS:               ID:20240819132225     3
 2024-08-19-1322-25S.MV____045                                                 6
 VOLC MAIN t                                                                   3
 STAT SP IPHASW D HRMM SECON CODA AMPLIT PERI AZIMU VELO AIN AR TRES W  DIS CAZ7
 MSS1 SZ EP       132247.533                             146    0.1010 1.29 354 
 MSS1 SZ IS       132248.090                             146   -0.0410 1.29 354 
 MBFR HZ IP       132247.748                             136    0.1410 1.91 185 
 MBFR H1 ES       132248.367                             136   -0.0710 1.91 185 
 MBFR H1  IAML    132249.241        99.8 0.13                          1.91 185 
 MBLY HZ IP       132247.642                             132    0.0610 1.97 308 
 MBLY H1 ES       132248.580                             132    0.2010 1.97 308 
 MBLY H1  IAML    132250.331        61.1 0.17                          1.97 308 
 MBLG HZ EP       132247.698                             128    0.0610 2.23  43 
 MBLG H1 ES       132248.353                             128   -0.1310 2.23  43 
 MBLG H1  IAML    132251.353        61.3 0.23                          2.23  43 
 MBRY BZ EP       132247.813                             125    0.0410 2.59 106 
 MBBY HZ EP       132247.999                             117    0.0910 3.11 243 
 MBBY H1 IS       132248.749                             117   -0.2110 3.11 243 
 MBWH BZ EP       132247.977                             116   -0.2410 3.85 336 
                                                                                
 2024  819 2058 52.4 LV 16.716 -62.180  2.9  MVO  9 0.3 2.1LMVO                1
 GAP= 59        0.87       0.7     0.7  1.5  0.1144E+00  0.1767E+00  0.7146E-01E
 2024  819 2058 52.365  16.71608  -62.18034    2.878  0.316                    H
 ACTION:REG 24-08-20 13:23 OP:nn   STATUS:               ID:20240819205824     I
 2024-08-19-2058-24S.MV____045                                                 6
 VOLC MAIN t                                                                   3
 STAT SP IPHASW D HRMM SECON CODA AMPLIT PERI AZIMU VELO AIN AR TRES W  DIS CAZ7
 MSS1 SZ IP       205853.594                             162    0.3410 0.69  24 
 MSS1 SZ IS       205854.087                             162    0.1610 0.69  24 
 MBLY HZ EP       205853.711                             147    0.4010 1.28 297 
 MBLY H1 IS     C 205854.205                             147    0.1810 1.28 297 
 MBLY H1  IAML    205856.471      1652.8 0.18                          1.28 297 
 MBLG HZ IP       205853.756                             132    0.2310 2.17  63 
 MBLG H2 IS       205854.274                             132   -0.1210 2.17  63 
 MBLG H2  IAML    205855.299      1753.1 0.18                          2.17  63 
 MBFR HZ IP     C 205853.753                             130    0.0410 2.57 174 
 MBFR H2 IS       205854.378                             130   -0.3410 2.57 174 
 MBGH HZ EP       205854.209                             123    0.3710 3.10 283 
 MBWH BZ IP       205854.081                             123    0.2310 3.10 339 
 MBGH H1 ES       205854.906                             123   -0.0410 3.10 283 
 MBWH BE ES       205854.748                             123   -0.2210 3.10 339 
 MBBY HZ IP       205853.988                             120    0.1810 3.12 229 
 MBBY H2 IS       205854.736                             120   -0.1510 3.12 229 
 MBBY H2  IAML    205858.943       806.6 0.25                          3.12 229 
 MBRY BZ IP       205853.823                             122   -0.0510 3.20 115 
 MBRY BN IS       205854.625                             122   -0.3810 3.20 115 
 MBRY BN  IAML    205859.533       893.7 0.42                          3.20 115 
 MBFL HZ EP       205854.547                             111    0.0610 4.96 316 
 MBFL H2 ES       205855.167                             111   -0.9110 4.96 316 
                                                                                
